{"type": "FeatureCollection", "features": [ {"type": "Feature", "properties": {"norad_id": 33867, "name": "IRIDIUM 33 DEB", "group": "iridium-33-debris", "lat": -83.47402901102966, "lon": -153.8895528508568, "alt_km": 401.97445670292655, "timestamp": "2025-12-08T10:52:03.332512+00:00", "meta": {"OBJECT_NAME": "IRIDIUM 33 DEB", "OBJECT_ID": "1997-051AL", "EPOCH": "2025-12-06T23:51:25.855200", "MEAN_MOTION": 15.58581253, "ECCENTRICITY": 0.00124601, "INCLINATION": 86.3623, "RA_OF_ASC_NODE": 353.0684, "ARG_OF_PERICENTER": 93.0935, "MEAN_ANOMALY": 267.1755, "EPHEMERIS_TYPE": 0, "CLASSIFICATION_TYPE": "U", "NORAD_CAT_ID": 33867, "ELEMENT_SET_NO": 999, "REV_AT_EPOCH": 89421, "BSTAR": 0.0084503515, "MEAN_MOTION_DOT": 0.0070536, "MEAN_MOTION_DDOT": 0}, "tle": {"line1": "1 33867U 97051AL  25340.99404925  .00705360  00000+0  84504-2 0  9998", "line2": "2 33867  86.3623 353.0684 0012460  93.0935 267.1755 15.58581253894218"}}, "geometry": {"type": "Point", "coordinates": [-153.8895528508568, -83.47402901102966]}}, {"type": "Feature", "properties": {"norad_id": 33870, "name": "IRIDIUM 33 DEB", "group": "iridium-33-debris", "lat": -12.924184189585056, "lon": 59.26499010616826, "alt_km": 757.4080784319722, "timestamp": "2025-12-08T10:52:03.332523+00:00", "meta": {"OBJECT_NAME": "IRIDIUM 33 DEB", "OBJECT_ID": "1997-051AP", "EPOCH": "2025-12-07T17:13:05.610720", "MEAN_MOTION": 14.4581045, "ECCENTRICITY": 0.0020926, "INCLINATION": 86.375, "RA_OF_ASC_NODE": 60.4136, "ARG_OF_PERICENTER": 194.7359, "MEAN_ANOMALY": 287.1202, "EPHEMERIS_TYPE": 0, "CLASSIFICATION_TYPE": "U", "NORAD_CAT_ID": 33870, "ELEMENT_SET_NO": 999, "REV_AT_EPOCH": 88064, "BSTAR": 0.0014263854, "MEAN_MOTION_DOT": 5.092e-05, "MEAN_MOTION_DDOT": 0}, "tle": {"line1": "1 33870U 97051AP  25341.71742605  .00005092  00000+0  14264-2 0  9994", "line2": "2 33870  86.3750  60.4136 0020926 194.7359 287.1202 14.45810450880649"}}, "geometry": {"type": "Point", "coordinates": [59.26499010616826, -12.924184189585056]}}, {"type": "Feature", "properties": {"norad_id": 33881, "name": "IRIDIUM 33 DEB", "group": "iridium-33-debris", "lat": 50.13816040147061, "lon": 112.94461194535057, "alt_km": 732.3149485557997, "timestamp": "2025-12-08T10:52:03.332534+00:00", "meta": {"OBJECT_NAME": "IRIDIUM 33 DEB", "OBJECT_ID": "1997-051BA", "EPOCH": "2025-12-06T21:17:41.557056", "MEAN_MOTION": 14.5641101, "ECCENTRICITY": 0.00613255, "INCLINATION": 86.3871, "RA_OF_ASC_NODE": 109.2851, "ARG_OF_PERICENTER": 193.6863, "MEAN_ANOMALY": 294.0884, "EPHEMERIS_TYPE": 0, "CLASSIFICATION_TYPE": "U", "NORAD_CAT_ID": 33881, "ELEMENT_SET_NO": 999, "REV_AT_EPOCH": 87415, "BSTAR": 0.0034816838, "MEAN_MOTION_DOT": 0.00015893, "MEAN_MOTION_DDOT": 0}, "tle": {"line1": "1 33881U 97051BA  25340.88728654  .00015893  00000+0  34817-2 0  9997", "line2": "2 33881  86.3871 109.2851 0061325 193.6863 294.0884 14.56411010874150"}}, "geometry": {"type": "Point", "coordinates": [112.94461194535057, 50.13816040147061]}}, {"type": "Feature", "properties": {"norad_id": 33884, "name": "IRIDIUM 33 DEB", "group": "iridium-33-debris", "lat": 36.05627691196867, "lon": 14.402908479221347, "alt_km": 631.457691099079, "timestamp": "2025-12-08T10:52:03.332545+00:00", "meta": {"OBJECT_NAME": "IRIDIUM 33 DEB", "OBJECT_ID": "1997-051BD", "EPOCH": "2025-12-07T20:51:21.594816", "MEAN_MOTION": 14.77290665, "ECCENTRICITY": 0.00101434, "INCLINATION": 86.3689, "RA_OF_ASC_NODE": 12.0165, "ARG_OF_PERICENTER": 342.3655, "MEAN_ANOMALY": 190.9123, "EPHEMERIS_TYPE": 0, "CLASSIFICATION_TYPE": "U", "NORAD_CAT_ID": 33884, "ELEMENT_SET_NO": 999, "REV_AT_EPOCH": 88775, "BSTAR": 0.002278389, "MEAN_MOTION_DOT": 0.00016221, "MEAN_MOTION_DDOT": 0}, "tle": {"line1": "1 33884U 97051BD  25341.86899994  .00016221  00000+0  22784-2 0  9991", "line2": "2 33884  86.3689  12.0165 0010143 342.3655 190.9123 14.77290665887757"}}, "geometry": {"type": "Point", "coordinates": [14.402908479221347, 36.05627691196867]}}, {"type": "Feature", "properties": {"norad_id": 33886, "name": "IRIDIUM 33 DEB", "group": "iridium-33-debris", "lat": -58.3392876804669, "lon": -105.07981428736925, "alt_km": 770.6806156053708, "timestamp": "2025-12-08T10:52:03.332556+00:00", "meta": {"OBJECT_NAME": "IRIDIUM 33 DEB", "OBJECT_ID": "1997-051BF", "EPOCH": "2025-12-07T19:15:20.467008", "MEAN_MOTION": 14.36043091, "ECCENTRICITY": 0.00120786, "INCLINATION": 86.3831, "RA_OF_ASC_NODE": 69.3067, "ARG_OF_PERICENTER": 260.6757, "MEAN_ANOMALY": 217.0505, "EPHEMERIS_TYPE": 0, "CLASSIFICATION_TYPE": "U", "NORAD_CAT_ID": 33886, "ELEMENT_SET_NO": 999, "REV_AT_EPOCH": 87981, "BSTAR": 0.0003813438, "MEAN_MOTION_DOT": 1.128e-05, "MEAN_MOTION_DDOT": 0}, "tle": {"line1": "1 33886U 97051BF  25341.80232022  .00001128  00000+0  38134-3 0  9997", "line2": "2 33886  86.3831  69.3067 0012078 260.6757 217.0505 14.36043091879815"}}, "geometry": {"type": "Point", "coordinates": [-105.07981428736925, -58.3392876804669]}}, {"type": "Feature", "properties": {"norad_id": 33887, "name": "IRIDIUM 33 DEB", "group": "iridium-33-debris", "lat": 23.17029927329194, "lon": -176.3450277478233, "alt_km": 767.3903306323282, "timestamp": "2025-12-08T10:52:03.332567+00:00", "meta": {"OBJECT_NAME": "IRIDIUM 33 DEB", "OBJECT_ID": "1997-051BG", "EPOCH": "2025-12-07T19:57:20.850048", "MEAN_MOTION": 14.3721476, "ECCENTRICITY": 0.00041294, "INCLINATION": 86.3048, "RA_OF_ASC_NODE": 5.5075, "ARG_OF_PERICENTER": 249.5792, "MEAN_ANOMALY": 294.4563, "EPHEMERIS_TYPE": 0, "CLASSIFICATION_TYPE": "U", "NORAD_CAT_ID": 33887, "ELEMENT_SET_NO": 999, "REV_AT_EPOCH": 88094, "BSTAR": 0.00026272888, "MEAN_MOTION_DOT": 8.01e-06, "MEAN_MOTION_DDOT": 0}, "tle": {"line1": "1 33887U 97051BG  25341.83149132  .00000801  00000+0  26273-3 0  9998", "line2": "2 33887  86.3048   5.5075 0004129 249.5792 294.4563 14.37214760880943"}}, "geometry": {"type": "Point", "coordinates": [-176.3450277478233, 23.17029927329194]}}, {"type": "Feature", "properties": {"norad_id": 33953, "name": "IRIDIUM 33 DEB", "group": "iridium-33-debris", "lat": 84.85150704109809, "lon": -168.93201208305533, "alt_km": 688.9209211918023, "timestamp": "2025-12-08T10:52:03.332578+00:00", "meta": {"OBJECT_NAME": "IRIDIUM 33 DEB", "OBJECT_ID": "1997-051BN", "EPOCH": "2025-12-07T23:41:46.639968", "MEAN_MOTION": 14.55250964, "ECCENTRICITY": 0.00185069, "INCLINATION": 86.3842, "RA_OF_ASC_NODE": 55.8419, "ARG_OF_PERICENTER": 117.3038, "MEAN_ANOMALY": 59.4423, "EPHEMERIS_TYPE": 0, "CLASSIFICATION_TYPE": "U", "NORAD_CAT_ID": 33953, "ELEMENT_SET_NO": 999, "REV_AT_EPOCH": 88234, "BSTAR": 0.0016064957, "MEAN_MOTION_DOT": 6.991e-05, "MEAN_MOTION_DDOT": 0}, "tle": {"line1": "1 33953U 97051BN  25341.98734537  .00006991  00000+0  16065-2 0  9990", "line2": "2 33953  86.3842  55.8419 0018506 117.3038  59.4423 14.55250964882344"}}, "geometry": {"type": "Point", "coordinates": [-168.93201208305533, 84.85150704109809]}}, {"type": "Feature", "properties": {"norad_id": 33960, "name": "IRIDIUM 33 DEB", "group": "iridium-33-debris", "lat": 19.760610569355837, "lon": 110.18589794866578, "alt_km": 614.5950530073633, "timestamp": "2025-12-08T10:52:03.332589+00:00", "meta": {"OBJECT_NAME": "IRIDIUM 33 DEB", "OBJECT_ID": "1997-051BV", "EPOCH": "2025-12-07T21:27:16.987104", "MEAN_MOTION": 14.84797874, "ECCENTRICITY": 0.00072802, "INCLINATION": 86.2539, "RA_OF_ASC_NODE": 291.7979, "ARG_OF_PERICENTER": 69.0965, "MEAN_ANOMALY": 345.5292, "EPHEMERIS_TYPE": 0, "CLASSIFICATION_TYPE": "U", "NORAD_CAT_ID": 33960, "ELEMENT_SET_NO": 999, "REV_AT_EPOCH": 88795, "BSTAR": 0.0040221347, "MEAN_MOTION_DOT": 0.00034297, "MEAN_MOTION_DDOT": 0}, "tle": {"line1": "1 33960U 97051BV  25341.89394661  .00034297  00000+0  40221-2 0  9999", "line2": "2 33960  86.2539 291.7979 0007280  69.0965 345.5292 14.84797874887958"}}, "geometry": {"type": "Point", "coordinates": [110.18589794866578, 19.760610569355837]}}, {"type": "Feature", "properties": {"norad_id": 33966, "name": "IRIDIUM 33 DEB", "group": "iridium-33-debris", "lat": -52.085875580137, "lon": 43.22114518455802, "alt_km": 735.3604724245552, "timestamp": "2025-12-08T10:52:03.332600+00:00", "meta": {"OBJECT_NAME": "IRIDIUM 33 DEB", "OBJECT_ID": "1997-051CB", "EPOCH": "2025-12-07T22:39:31.260384", "MEAN_MOTION": 14.4956335, "ECCENTRICITY": 0.00068631, "INCLINATION": 86.3925, "RA_OF_ASC_NODE": 48.0853, "ARG_OF_PERICENTER": 204.7309, "MEAN_ANOMALY": 330.1013, "EPHEMERIS_TYPE": 0, "CLASSIFICATION_TYPE": "U", "NORAD_CAT_ID": 33966, "ELEMENT_SET_NO": 999, "REV_AT_EPOCH": 88372, "BSTAR": 0.00079663451, "MEAN_MOTION_DOT": 3.076e-05, "MEAN_MOTION_DDOT": 0}, "tle": {"line1": "1 33966U 97051CB  25341.94411181  .00003076  00000+0  79663-3 0  9992", "line2": "2 33966  86.3925  48.0853 0006863 204.7309 330.1013 14.49563350883727"}}, "geometry": {"type": "Point", "coordinates": [43.22114518455802, -52.085875580137]}}, {"type": "Feature", "properties": {"norad_id": 34071, "name": "IRIDIUM 33 DEB", "group": "iridium-33-debris", "lat": 15.910477002714206, "lon": 20.735598884891775, "alt_km": 729.7862246305594, "timestamp": "2025-12-08T10:52:03.332611+00:00", "meta": {"OBJECT_NAME": "IRIDIUM 33 DEB", "OBJECT_ID": "1997-051CE", "EPOCH": "2025-12-07T19:52:56.224128", "MEAN_MOTION": 14.4943314, "ECCENTRICITY": 0.00097588, "INCLINATION": 86.3456, "RA_OF_ASC_NODE": 19.963, "ARG_OF_PERICENTER": 120.799, "MEAN_ANOMALY": 239.4176, "EPHEMERIS_TYPE": 0, "CLASSIFICATION_TYPE": "U", "NORAD_CAT_ID": 34071, "ELEMENT_SET_NO": 999, "REV_AT_EPOCH": 88263, "BSTAR": 0.0010378873, "MEAN_MOTION_DOT": 3.992e-05, "MEAN_MOTION_DDOT": 0}, "tle": {"line1": "1 34071U 97051CE  25341.82842852  .00003992  00000+0  10379-2 0  9995", "line2": "2 34071  86.3456  19.9630 0009758 120.7990 239.4176 14.49433140882636"}}, "geometry": {"type": "Point", "coordinates": [20.735598884891775, 15.910477002714206]}}]}